{
    "links": {
        "self": "http://www.neowsapp.com/rest/v1/neo/54051377?api_key=iIulBulltgU6a56xZRHN4H3l9WmuAYTsLGpBGhQ2"
    },
    "id": "54051377",
    "neo_reference_id": "54051377",
    "name": "(2020 QC5)",
    "designation": "2020 QC5",
    "nasa_jpl_url": "http://ssd.jpl.nasa.gov/sbdb.cgi?sstr=54051377",
    "absolute_magnitude_h": 25.31,
    "estimated_diameter": {
        "kilometers": {
            "estimated_diameter_min": 0.0230438467,
            "estimated_diameter_max": 0.0515276076
        },
        "meters": {
            "estimated_diameter_min": 23.0438466577,
            "estimated_diameter_max": 51.5276075896
        },
        "miles": {
            "estimated_diameter_min": 0.014318778,
            "estimated_diameter_max": 0.0320177611
        },
        "feet": {
            "estimated_diameter_min": 75.6031738683,
            "estimated_diameter_max": 169.0538360842
        }
    },
    "is_potentially_hazardous_asteroid": false,
    "close_approach_data": [
        {
            "close_approach_date": "2020-09-05",
            "close_approach_date_full": "2020-Sep-05 15:12",
            "epoch_date_close_approach": 1599318720000,
            "relative_velocity": {
                "kilometers_per_second": "10.6844709302",
                "kilometers_per_hour": "38464.0953488921",
                "miles_per_hour": "23900.0930238713"
            },
            "miss_distance": {
                "astronomical": "0.0760044192",
                "lunar": "29.5657190688",
                "kilometers": "11370099.222907104",
                "miles": "7065052.0462978752"
            },
            "orbiting_body": "Earth"
        }
    ],
    "orbital_data": {
        "orbit_id": "3",
        "orbit_determination_date": "2020-10-22 15:16:58",
        "first_observation_date": "2020-08-13",
        "last_observation_date": "2020-08-24",
        "data_arc_in_days": 11,
        "observations_used": 18,
        "orbit_uncertainty": "9",
        "minimum_orbit_intersection": ".0662876",
        "jupiter_tisserand_invariant": "3.715",
        "epoch_osculation": "2459081.5",
        "eccentricity": ".5124921840936959",
        "semi_major_axis": "1.949322267007114",
        "inclination": "5.997061664776242",
        "ascending_node_longitude": "312.3954088393074",
        "orbital_period": "994.0858510729116",
        "perihelion_distance": ".9503098408861634",
        "perihelion_argument": "75.21664511869218",
        "aphelion_distance": "2.948334693128064",
        "perihelion_time": "2459132.553163298306",
        "mean_anomaly": "341.5115175741072",
        "mean_motion": ".3621417603031508",
        "equinox": "J2000",
        "orbit_class": {
            "orbit_class_type": "APO",
            "orbit_class_description": "Near-Earth asteroid orbits which cross the Earth’s orbit similar to that of 1862 Apollo",
            "orbit_class_range": "a (semi-major axis) > 1.0 AU; q (perihelion) < 1.017 AU"
        }
    },
    "is_sentry_object": false
}